{"type": "FeatureCollection", "features": [{"type": "Feature", "properties": {"name": "outside-india-mask"}, "geometry": {"type": "Polygon", "coordinates": [[[-180, -80], [180, -80], [180, 80], [-180, 80], [-180, -80]], [[93.253, 24.021], [93.378, 24.088], [93.74, 24.006], [94.253, 24.114], [94.375, 24.494], [94.653, 25.115], [94.675, 25.445], [94.883, 25.587], [95.014, 25.891], [95.123, 26.348], [95.235, 26.682], [95.496, 26.817], [95.684, 26.904], [96.022, 27.18], [96.606, 27.366], [96.862, 27.631], [97.253, 27.901], [97.371, 28.218], [96.663, 28.46], [96.314, 28.383], [96.326, 28.511], [96.519, 28.967], [96.089, 29.459], [95.27, 29.05], [94.679, 29.328], [94.187, 29.039], [93.962, 28.713], [93.34, 28.64], [93.224, 28.342], [92.734, 27.976], [92.468, 27.815], [92.014, 27.489], [92.113, 26.893], [91.704, 26.813], [90.951, 26.777], [90.337, 26.863], [89.852, 26.698], [89.09, 26.841], [88.869, 26.966], [88.722, 27.139], [88.794, 27.417], [88.844, 27.993], [88.205, 27.942], [88.115, 27.619], [88.038, 27.22], [88.11, 26.548], [87.659, 26.38], [87.043, 26.56], [86.723, 26.425], [86.029, 26.666], [85.816, 26.6], [85.255, 26.754], [84.758, 27.003], [84.62, 27.34], [84.097, 27.517], [83.862, 27.335], [83.292, 27.335], [82.732, 27.487], [82.207, 27.844], [81.742, 27.953], [81.053, 28.405], [80.314, 28.629], [80.065, 28.837], [80.074, 28.941], [80.242, 29.444], [80.366, 29.74], [80.929, 30.174], [80.102, 30.789], [79.407, 31.073], [78.881, 31.284], [78.673, 32.078], [78.398, 32.525], [78.761, 32.654], [79.114, 32.383], [79.626, 32.74], [78.988, 33.334], [79.507, 34.475], [80.068, 34.714], [80.29, 35.607], [79.215, 35.979], [77.612, 35.469], [76.935, 35.783], [76.351, 36.359], [75.748, 36.588], [75.343, 37.052], [74.708, 37.077], [73.7, 36.684], [73.126, 36.687], [72.595, 36.262], [72.534, 35.917], [73.089, 35.882], [73.795, 35.244], [74.147, 35.097], [73.39, 34.374], [73.488, 34.145], [73.598, 33.713], [73.688, 33.087], [74.447, 32.789], [74.889, 32.521], [75.205, 32.418], [75.341, 32.346], [75.38, 32.183], [74.913, 32.044], [74.503, 31.74], [74.612, 31.5], [74.708, 31.072], [74.216, 30.691], [73.968, 30.194], [73.398, 29.946], [72.945, 29.028], [72.662, 28.893], [72.3, 28.669], [71.881, 27.914], [70.758, 27.722], [70.371, 28.012], [69.587, 27.184], [69.511, 26.743], [70.174, 26.552], [70.141, 26.156], [70.269, 25.713], [70.665, 25.397], [71.112, 24.675], [70.806, 24.22], [70.573, 24.422], [69.732, 24.171], [68.764, 24.296], [68.339, 23.966], [68.31, 23.578], [68.633, 23.17], [69.131, 22.874], [69.648, 22.796], [70.081, 22.92], [70.312, 23.215], [70.69, 23.118], [70.497, 22.934], [70.125, 22.553], [69.754, 22.418], [68.966, 22.234], [69.396, 21.889], [69.982, 21.227], [70.24, 20.992], [70.92, 20.742], [71, 20.742], [71.206, 20.796], [71.677, 20.997], [72.113, 21.199], [72.309, 21.625], [72.245, 21.995], [72.376, 22.315], [72.947, 22.293], [72.867, 22.215], [72.567, 22.182], [72.543, 21.733], [72.736, 21.475], [72.751, 21.062], [72.855, 20.75], [72.887, 20.462], [72.829, 20.368], [72.775, 20.132], [72.655, 19.836], [72.798, 19.304], [72.785, 19.264], [72.836, 18.864], [73.044, 17.982], [73.289, 17.116], [73.347, 16.53], [73.685, 15.728], [73.934, 15.433], [74.086, 14.901], [74.263, 14.719], [74.583, 13.926], [74.777, 13.071], [74.869, 12.759], [75.165, 12.089], [75.554, 11.702], [75.826, 11.123], [75.958, 10.686], [76.214, 10.194], [76.28, 9.79], [76.479, 9.123], [76.682, 8.776], [77.098, 8.292], [77.589, 8.14], [77.97, 8.335], [78.384, 9.094], [78.9, 9.469], [79.117, 9.85], [79.227, 10.137], [79.472, 10.316], [79.872, 10.36], [79.849, 10.827], [79.851, 10.986], [79.813, 11.424], [79.808, 11.845], [79.84, 11.956], [80.008, 12.254], [80.25, 12.858], [80.3, 13.143], [80.268, 13.565], [80.131, 14.229], [80.196, 14.586], [80.041, 15.009], [80.418, 15.799], [80.831, 15.706], [81.213, 16.208], [81.553, 16.347], [81.715, 16.311], [82.314, 16.559], [82.319, 17.058], [82.542, 17.249], [83.162, 17.56], [83.519, 17.95], [83.663, 18.079], [84.128, 18.313], [84.701, 19.119], [85.172, 19.468], [86.37, 19.982], [86.777, 20.335], [86.806, 20.735], [86.859, 21.214], [87.485, 21.615], [87.789, 21.699], [87.998, 22.245], [88.082, 22.261], [88.445, 21.918], [89.055, 22.128], [88.709, 23.232], [88.593, 23.617], [88.7, 24.097], [88.027, 24.69], [88.436, 25.201], [88.446, 25.595], [88.093, 25.93], [88.333, 26.497], [88.401, 26.644], [88.76, 26.329], [89.349, 26.01], [89.729, 26.171], [89.843, 25.882], [89.872, 25.477], [89.974, 25.299], [90.234, 25.203], [90.97, 25.173], [91.355, 25.233], [92.017, 25.19], [92.199, 25.125], [92.425, 25.03], [92.516, 24.88], [92.214, 24.509], [92.071, 24.377], [91.924, 24.109], [91.756, 24.142], [91.47, 24.062], [91.227, 23.732], [91.32, 23.277], [91.759, 23.266], [91.805, 23.515], [92.176, 23.708], [92.265, 23.727], [92.402, 23.266], [92.509, 22.741], [92.606, 22.124], [92.855, 22.063], [93.161, 22.18], [93.097, 22.786], [93.123, 23.006], [93.196, 23.056], [93.358, 23.331], [93.39, 23.497], [93.253, 24.021]]]}}]}